[{"OBJECT_NAME":"GREENCUBE (IO-117)","OBJECT_ID":"2022-080E","EPOCH":"2026-03-04T18:03:14.931360","MEAN_MOTION":6.42583119,"ECCENTRICITY":0.0009068,"INCLINATION":70.1624,"RA_OF_ASC_NODE":334.5702,"ARG_OF_PERICENTER":312.4506,"MEAN_ANOMALY":47.5387,"EPHEMERIS_TYPE":0,"CLASSIFICATION_TYPE":"U","NORAD_CAT_ID":53109,"ELEMENT_SET_NO":999,"REV_AT_EPOCH":8535,"BSTAR":0,"MEAN_MOTION_DOT":-3.0e-8,"MEAN_MOTION_DDOT":0},{"OBJECT_NAME":"UMKA 1 (RS40S)","OBJECT_ID":"2023-091G","EPOCH":"2026-03-04T19:56:28.611744","MEAN_MOTION":15.19510272,"ECCENTRICITY":0.0014566,"INCLINATION":97.5187,"RA_OF_ASC_NODE":122.9568,"ARG_OF_PERICENTER":121.2651,"MEAN_ANOMALY":239.0013,"EPHEMERIS_TYPE":0,"CLASSIFICATION_TYPE":"U","NORAD_CAT_ID":57172,"ELEMENT_SET_NO":999,"REV_AT_EPOCH":14815,"BSTAR":0.00046911,"MEAN_MOTION_DOT":9.925e-5,"MEAN_MOTION_DDOT":0},{"OBJECT_NAME":"CUBESX-HSE 3 (RS42S)","OBJECT_ID":"2023-091N","EPOCH":"2026-03-04T20:24:24.835680","MEAN_MOTION":15.28427126,"ECCENTRICITY":0.0012823,"INCLINATION":97.5216,"RA_OF_ASC_NODE":128.272,"ARG_OF_PERICENTER":102.7353,"MEAN_ANOMALY":257.532,"EPHEMERIS_TYPE":0,"CLASSIFICATION_TYPE":"U","NORAD_CAT_ID":57178,"ELEMENT_SET_NO":999,"REV_AT_EPOCH":14847,"BSTAR":0.00070597,"MEAN_MOTION_DOT":0.00019537,"MEAN_MOTION_DDOT":0},{"OBJECT_NAME":"MONITOR-3 (RS58S)","OBJECT_ID":"2023-091Q","EPOCH":"2026-03-04T20:37:18.425856","MEAN_MOTION":15.25592053,"ECCENTRICITY":0.0013719,"INCLINATION":97.5211,"RA_OF_ASC_NODE":126.6466,"ARG_OF_PERICENTER":107.2089,"MEAN_ANOMALY":253.0652,"EPHEMERIS_TYPE":0,"CLASSIFICATION_TYPE":"U","NORAD_CAT_ID":57180,"ELEMENT_SET_NO":999,"REV_AT_EPOCH":14837,"BSTAR":0.00065202,"MEAN_MOTION_DOT":0.00016552,"MEAN_MOTION_DDOT":0},{"OBJECT_NAME":"MONITOR-4 (RS57S)","OBJECT_ID":"2023-091S","EPOCH":"2026-03-04T20:16:16.617792","MEAN_MOTION":15.25678318,"ECCENTRICITY":0.0013725,"INCLINATION":97.5207,"RA_OF_ASC_NODE":126.5964,"ARG_OF_PERICENTER":107.7193,"MEAN_ANOMALY":252.5544,"EPHEMERIS_TYPE":0,"CLASSIFICATION_TYPE":"U","NORAD_CAT_ID":57182,"ELEMENT_SET_NO":999,"REV_AT_EPOCH":14837,"BSTAR":0.00064672,"MEAN_MOTION_DOT":0.00016459,"MEAN_MOTION_DDOT":0},{"OBJECT_NAME":"MONITOR-2 (RS39S)","OBJECT_ID":"2023-091U","EPOCH":"2026-03-04T20:39:28.990944","MEAN_MOTION":15.17842199,"ECCENTRICITY":0.0012939,"INCLINATION":97.5209,"RA_OF_ASC_NODE":122.8263,"ARG_OF_PERICENTER":113.6787,"MEAN_ANOMALY":246.5806,"EPHEMERIS_TYPE":0,"CLASSIFICATION_TYPE":"U","NORAD_CAT_ID":57184,"ELEMENT_SET_NO":999,"REV_AT_EPOCH":14812,"BSTAR":0.00037355,"MEAN_MOTION_DOT":7.51e-5,"MEAN_MOTION_DDOT":0},{"OBJECT_NAME":"SVYATOBOR 1 (RS60S)","OBJECT_ID":"2023-091X","EPOCH":"2026-03-04T20:15:01.567296","MEAN_MOTION":15.24688083,"ECCENTRICITY":0.0011278,"INCLINATION":97.5218,"RA_OF_ASC_NODE":127.1653,"ARG_OF_PERICENTER":100.0497,"MEAN_ANOMALY":260.2013,"EPHEMERIS_TYPE":0,"CLASSIFICATION_TYPE":"U","NORAD_CAT_ID":57187,"ELEMENT_SET_NO":999,"REV_AT_EPOCH":14840,"BSTAR":0.00060149,"MEAN_MOTION_DOT":0.00014839,"MEAN_MOTION_DDOT":0},{"OBJECT_NAME":"VIZARD-METEO (RS38S)","OBJECT_ID":"2023-091Z","EPOCH":"2026-03-04T20:47:56.604768","MEAN_MOTION":15.32537227,"ECCENTRICITY":0.0008981,"INCLINATION":97.5206,"RA_OF_ASC_NODE":131.4769,"ARG_OF_PERICENTER":87.4172,"MEAN_ANOMALY":272.8097,"EPHEMERIS_TYPE":0,"CLASSIFICATION_TYPE":"U","NORAD_CAT_ID":57189,"ELEMENT_SET_NO":999,"REV_AT_EPOCH":14869,"BSTAR":0.00074367,"MEAN_MOTION_DOT":0.00023358,"MEAN_MOTION_DDOT":0},{"OBJECT_NAME":"NANOZOND 1 (RS49S)","OBJECT_ID":"2023-091AA","EPOCH":"2026-03-04T18:50:11.914368","MEAN_MOTION":15.72447637,"ECCENTRICITY":4.56e-5,"INCLINATION":97.509,"RA_OF_ASC_NODE":143.6448,"ARG_OF_PERICENTER":27.7219,"MEAN_ANOMALY":332.4068,"EPHEMERIS_TYPE":0,"CLASSIFICATION_TYPE":"U","NORAD_CAT_ID":57190,"ELEMENT_SET_NO":999,"REV_AT_EPOCH":14950,"BSTAR":0.0017099,"MEAN_MOTION_DOT":0.00233103,"MEAN_MOTION_DDOT":0},{"OBJECT_NAME":"POLYTECH-UNIVERSE 3 (RS46S)","OBJECT_ID":"2023-091AB","EPOCH":"2026-03-04T20:03:00.543744","MEAN_MOTION":15.18024751,"ECCENTRICITY":0.0017183,"INCLINATION":97.5184,"RA_OF_ASC_NODE":122.3082,"ARG_OF_PERICENTER":129.724,"MEAN_ANOMALY":230.5511,"EPHEMERIS_TYPE":0,"CLASSIFICATION_TYPE":"U","NORAD_CAT_ID":57191,"ELEMENT_SET_NO":999,"REV_AT_EPOCH":14811,"BSTAR":0.00041535,"MEAN_MOTION_DOT":8.417e-5,"MEAN_MOTION_DDOT":0},{"OBJECT_NAME":"UTMN 2 (RS27S)","OBJECT_ID":"2023-091AP","EPOCH":"2026-03-04T20:40:22.001664","MEAN_MOTION":15.29312497,"ECCENTRICITY":0.0009873,"INCLINATION":97.5207,"RA_OF_ASC_NODE":129.7884,"ARG_OF_PERICENTER":91.3899,"MEAN_ANOMALY":268.8471,"EPHEMERIS_TYPE":0,"CLASSIFICATION_TYPE":"U","NORAD_CAT_ID":57203,"ELEMENT_SET_NO":999,"REV_AT_EPOCH":14858,"BSTAR":0.00069922,"MEAN_MOTION_DOT":0.00019863,"MEAN_MOTION_DDOT":0},{"OBJECT_NAME":"KUZGTU 1 (RS47S)","OBJECT_ID":"2023-091AV","EPOCH":"2026-03-04T19:44:26.466720","MEAN_MOTION":15.2730792,"ECCENTRICITY":0.0013029,"INCLINATION":97.5191,"RA_OF_ASC_NODE":127.3717,"ARG_OF_PERICENTER":105.2296,"MEAN_ANOMALY":255.0384,"EPHEMERIS_TYPE":0,"CLASSIFICATION_TYPE":"U","NORAD_CAT_ID":57217,"ELEMENT_SET_NO":999,"REV_AT_EPOCH":14843,"BSTAR":0.00064711,"MEAN_MOTION_DOT":0.00017298,"MEAN_MOTION_DDOT":0},{"OBJECT_NAME":"SONATE-2","OBJECT_ID":"2024-043Q","EPOCH":"2026-03-04T19:42:15.897312","MEAN_MOTION":15.50902747,"ECCENTRICITY":0.0007802,"INCLINATION":97.5393,"RA_OF_ASC_NODE":208.5178,"ARG_OF_PERICENTER":223.2577,"MEAN_ANOMALY":136.8062,"EPHEMERIS_TYPE":0,"CLASSIFICATION_TYPE":"U","NORAD_CAT_ID":59112,"ELEMENT_SET_NO":999,"REV_AT_EPOCH":11167,"BSTAR":0.00086262,"MEAN_MOTION_DOT":0.0005011,"MEAN_MOTION_DDOT":0},{"OBJECT_NAME":"MESAT1","OBJECT_ID":"2024-125G","EPOCH":"2026-03-04T02:17:33.891360","MEAN_MOTION":15.53001592,"ECCENTRICITY":0.00112692,"INCLINATION":97.2459,"RA_OF_ASC_NODE":278.8833,"ARG_OF_PERICENTER":244.7143,"MEAN_ANOMALY":115.2943,"EPHEMERIS_TYPE":0,"CLASSIFICATION_TYPE":"U","NORAD_CAT_ID":60209,"ELEMENT_SET_NO":999,"REV_AT_EPOCH":9320,"BSTAR":0.0009235721,"MEAN_MOTION_DOT":0.00057973,"MEAN_MOTION_DDOT":0},{"OBJECT_NAME":"OOV-CUBE (TUBSAT-30)","OBJECT_ID":"2024-128F","EPOCH":"2026-03-04T10:30:09.946368","MEAN_MOTION":15.02202769,"ECCENTRICITY":0.00549615,"INCLINATION":61.9938,"RA_OF_ASC_NODE":230.6838,"ARG_OF_PERICENTER":111.3065,"MEAN_ANOMALY":249.3906,"EPHEMERIS_TYPE":0,"CLASSIFICATION_TYPE":"U","NORAD_CAT_ID":60240,"ELEMENT_SET_NO":999,"REV_AT_EPOCH":9037,"BSTAR":0.00040817128,"MEAN_MOTION_DOT":5.371e-5,"MEAN_MOTION_DDOT":0},{"OBJECT_NAME":"COLIBRI-S (RS67S)","OBJECT_ID":"2024-199M","EPOCH":"2026-03-04T19:43:17.211936","MEAN_MOTION":15.43181314,"ECCENTRICITY":0.0007944,"INCLINATION":97.3164,"RA_OF_ASC_NODE":296.9605,"ARG_OF_PERICENTER":307.0775,"MEAN_ANOMALY":52.9746,"EPHEMERIS_TYPE":0,"CLASSIFICATION_TYPE":"U","NORAD_CAT_ID":61746,"ELEMENT_SET_NO":999,"REV_AT_EPOCH":12129,"BSTAR":0.00064306,"MEAN_MOTION_DOT":0.00028523,"MEAN_MOTION_DDOT":0}]
