GREENCUBE (IO-117)      
1 53109U 22080E   26063.75225615 -.00000003  00000+0  00000+0 0  9992
2 53109  70.1624 334.5702 0009068 312.4506  47.5387  6.42583119 85352
UMKA 1 (RS40S)          
1 57172U 23091G   26063.83088671  .00009925  00000+0  46911-3 0  9993
2 57172  97.5187 122.9568 0014566 121.2651 239.0013 15.19510272148154
CUBESX-HSE 3 (RS42S)    
1 57178U 23091N   26063.85028745  .00019537  00000+0  70597-3 0  9994
2 57178  97.5216 128.2720 0012823 102.7353 257.5320 15.28427126148475
MONITOR-3 (RS58S)       
1 57180U 23091Q   26063.85924104  .00016552  00000+0  65202-3 0  9992
2 57180  97.5211 126.6466 0013719 107.2089 253.0652 15.25592053148370
MONITOR-4 (RS57S)       
1 57182U 23091S   26063.84463678  .00016459  00000+0  64672-3 0  9993
2 57182  97.5207 126.5964 0013725 107.7193 252.5544 15.25678318148370
MONITOR-2 (RS39S)       
1 57184U 23091U   26063.86075221  .00007510  00000+0  37355-3 0  9996
2 57184  97.5209 122.8263 0012939 113.6787 246.5806 15.17842199148124
SVYATOBOR 1 (RS60S)     
1 57187U 23091X   26063.84376814  .00014839  00000+0  60149-3 0  9998
2 57187  97.5218 127.1653 0011278 100.0497 260.2013 15.24688083148403
VIZARD-METEO (RS38S)    
1 57189U 23091Z   26063.86662737  .00023358  00000+0  74367-3 0  9997
2 57189  97.5206 131.4769 0008981  87.4172 272.8097 15.32537227148697
NANOZOND 1 (RS49S)      
1 57190U 23091AA  26063.78486012  .00233103  00000+0  17099-2 0  9999
2 57190  97.5090 143.6448 0000456  27.7219 332.4068 15.72447637149508
POLYTECH-UNIVERSE 3 (R*)
1 57191U 23091AB  26063.83542296  .00008417  00000+0  41535-3 0  9994
2 57191  97.5184 122.3082 0017183 129.7240 230.5511 15.18024751148118
UTMN 2 (RS27S)          
1 57203U 23091AP  26063.86136576  .00019863  00000+0  69922-3 0  9998
2 57203  97.5207 129.7884 0009873  91.3899 268.8471 15.29312497148589
KUZGTU 1 (RS47S)        
1 57217U 23091AV  26063.82252855  .00017298  00000+0  64711-3 0  9999
2 57217  97.5191 127.3717 0013029 105.2296 255.0384 15.27307920148437
SONATE-2                
1 59112U 24043Q   26063.82101733  .00050110  00000+0  86262-3 0  9996
2 59112  97.5393 208.5178 0007802 223.2577 136.8062 15.50902747111674
MESAT1                  
1 60209U 24125G   26063.09553115  .00057973  00000+0  92357-3 0  9996
2 60209  97.2459 278.8833 0011269 244.7143 115.2943 15.53001592 93208
OOV-CUBE (TUBSAT-30)    
1 60240U 24128F   26063.43761512  .00005371  00000+0  40817-3 0  9993
2 60240  61.9938 230.6838 0054961 111.3065 249.3906 15.02202769 90378
COLIBRI-S (RS67S)       
1 61746U 24199M   26063.82172699  .00028523  00000+0  64306-3 0  9991
2 61746  97.3164 296.9605 0007944 307.0775  52.9746 15.43181314121295
